{"type": "FeatureCollection", "features": [ {"type": "Feature", "properties": {"norad_id": 30447, "name": "FENGYUN 1C DEB", "group": "fengyun-1c-debris", "lat": 58.281513974087915, "lon": -167.46214861466478, "alt_km": 660.4761655082339, "timestamp": "2025-12-11T20:41:15.357357+00:00", "meta": {"OBJECT_NAME": "FENGYUN 1C DEB", "OBJECT_ID": "1999-025AFJ", "EPOCH": "2025-12-11T13:57:31.445280", "MEAN_MOTION": 14.56547656, "ECCENTRICITY": 0.00600565, "INCLINATION": 98.9724, "RA_OF_ASC_NODE": 207.0473, "ARG_OF_PERICENTER": 34.0416, "MEAN_ANOMALY": 355.8694, "EPHEMERIS_TYPE": 0, "CLASSIFICATION_TYPE": "U", "NORAD_CAT_ID": 30447, "ELEMENT_SET_NO": 999, "REV_AT_EPOCH": 98079, "BSTAR": 0.0039234233, "MEAN_MOTION_DOT": 0.0001789, "MEAN_MOTION_DDOT": 0}, "tle": {"line1": "1 30447U 99025AFJ 25345.58161395  .00017890  00000+0  39234-2 0  9997", "line2": "2 30447  98.9724 207.0473 0060056  34.0416 355.8694 14.56547656980799"}}, "geometry": {"type": "Point", "coordinates": [-167.46214861466478, 58.281513974087915]}}, {"type": "Feature", "properties": {"norad_id": 30448, "name": "FENGYUN 1C DEB", "group": "fengyun-1c-debris", "lat": -27.566760954517523, "lon": -107.21713632018572, "alt_km": 792.2642903297856, "timestamp": "2025-12-11T20:41:15.357369+00:00", "meta": {"OBJECT_NAME": "FENGYUN 1C DEB", "OBJECT_ID": "1999-025AFK", "EPOCH": "2025-12-11T06:39:53.639424", "MEAN_MOTION": 14.35110797, "ECCENTRICITY": 0.00170158, "INCLINATION": 98.8306, "RA_OF_ASC_NODE": 76.8404, "ARG_OF_PERICENTER": 16.7666, "MEAN_ANOMALY": 54.1805, "EPHEMERIS_TYPE": 0, "CLASSIFICATION_TYPE": "U", "NORAD_CAT_ID": 30448, "ELEMENT_SET_NO": 999, "REV_AT_EPOCH": 97317, "BSTAR": 0.003678837, "MEAN_MOTION_DOT": 0.00010486, "MEAN_MOTION_DDOT": 0}, "tle": {"line1": "1 30448U 99025AFK 25345.27770416  .00010486  00000+0  36788-2 0  9999", "line2": "2 30448  98.8306  76.8404 0017015  16.7666  54.1805 14.35110797973178"}}, "geometry": {"type": "Point", "coordinates": [-107.21713632018572, -27.566760954517523]}}, {"type": "Feature", "properties": {"norad_id": 30450, "name": "FENGYUN 1C DEB", "group": "fengyun-1c-debris", "lat": -68.50345721319194, "lon": 158.77057791007462, "alt_km": 589.7844164381731, "timestamp": "2025-12-11T20:41:15.357379+00:00", "meta": {"OBJECT_NAME": "FENGYUN 1C DEB", "OBJECT_ID": "1999-025AFM", "EPOCH": "2025-12-11T12:03:19.622016", "MEAN_MOTION": 14.61768896, "ECCENTRICITY": 0.01890058, "INCLINATION": 98.0809, "RA_OF_ASC_NODE": 359.5646, "ARG_OF_PERICENTER": 212.2013, "MEAN_ANOMALY": 304.8183, "EPHEMERIS_TYPE": 0, "CLASSIFICATION_TYPE": "U", "NORAD_CAT_ID": 30450, "ELEMENT_SET_NO": 999, "REV_AT_EPOCH": 99524, "BSTAR": 0.0010606732, "MEAN_MOTION_DOT": 6.78e-05, "MEAN_MOTION_DDOT": 0}, "tle": {"line1": "1 30450U 99025AFM 25345.50231044  .00006780  00000+0  10607-2 0  9991", "line2": "2 30450  98.0809 359.5646 0189005 212.2013 304.8183 14.61768896995242"}}, "geometry": {"type": "Point", "coordinates": [158.77057791007462, -68.50345721319194]}}, {"type": "Feature", "properties": {"norad_id": 30452, "name": "FENGYUN 1C DEB", "group": "fengyun-1c-debris", "lat": 60.3100928855478, "lon": 107.69209621573269, "alt_km": 706.9247823011792, "timestamp": "2025-12-11T20:41:15.357388+00:00", "meta": {"OBJECT_NAME": "FENGYUN 1C DEB", "OBJECT_ID": "1999-025AFP", "EPOCH": "2025-12-11T09:13:28.140672", "MEAN_MOTION": 14.64468284, "ECCENTRICITY": 0.00498212, "INCLINATION": 99.3196, "RA_OF_ASC_NODE": 123.8914, "ARG_OF_PERICENTER": 256.6192, "MEAN_ANOMALY": 168.2919, "EPHEMERIS_TYPE": 0, "CLASSIFICATION_TYPE": "U", "NORAD_CAT_ID": 30452, "ELEMENT_SET_NO": 999, "REV_AT_EPOCH": 98087, "BSTAR": 0.0086120632, "MEAN_MOTION_DOT": 0.00046686, "MEAN_MOTION_DDOT": 0}, "tle": {"line1": "1 30452U 99025AFP 25345.38435348  .00046686  00000+0  86121-2 0  9995", "line2": "2 30452  99.3196 123.8914 0049821 256.6192 168.2919 14.64468284980871"}}, "geometry": {"type": "Point", "coordinates": [107.69209621573269, 60.3100928855478]}}, {"type": "Feature", "properties": {"norad_id": 30453, "name": "FENGYUN 1C DEB", "group": "fengyun-1c-debris", "lat": -68.83125381876441, "lon": -146.04151653331925, "alt_km": 739.30695280695, "timestamp": "2025-12-11T20:41:15.357398+00:00", "meta": {"OBJECT_NAME": "FENGYUN 1C DEB", "OBJECT_ID": "1999-025AFQ", "EPOCH": "2025-12-11T04:28:20.449920", "MEAN_MOTION": 14.24737063, "ECCENTRICITY": 0.01156154, "INCLINATION": 98.8128, "RA_OF_ASC_NODE": 56.8969, "ARG_OF_PERICENTER": 230.7595, "MEAN_ANOMALY": 155.9626, "EPHEMERIS_TYPE": 0, "CLASSIFICATION_TYPE": "U", "NORAD_CAT_ID": 30453, "ELEMENT_SET_NO": 999, "REV_AT_EPOCH": 97212, "BSTAR": 0.0023757753, "MEAN_MOTION_DOT": 5.89e-05, "MEAN_MOTION_DDOT": 0}, "tle": {"line1": "1 30453U 99025AFQ 25345.18634780  .00005890  00000+0  23758-2 0  9994", "line2": "2 30453  98.8128  56.8969 0115615 230.7595 155.9626 14.24737063972128"}}, "geometry": {"type": "Point", "coordinates": [-146.04151653331925, -68.83125381876441]}}, {"type": "Feature", "properties": {"norad_id": 30454, "name": "FENGYUN 1C DEB", "group": "fengyun-1c-debris", "lat": -75.29238951894999, "lon": -10.805574182503891, "alt_km": 834.5052199494212, "timestamp": "2025-12-11T20:41:15.357408+00:00", "meta": {"OBJECT_NAME": "FENGYUN 1C DEB", "OBJECT_ID": "1999-025AFR", "EPOCH": "2025-12-11T11:30:11.515680", "MEAN_MOTION": 14.15371002, "ECCENTRICITY": 0.01712271, "INCLINATION": 98.1349, "RA_OF_ASC_NODE": 315.8261, "ARG_OF_PERICENTER": 198.8835, "MEAN_ANOMALY": 292.693, "EPHEMERIS_TYPE": 0, "CLASSIFICATION_TYPE": "U", "NORAD_CAT_ID": 30454, "ELEMENT_SET_NO": 999, "REV_AT_EPOCH": 95942, "BSTAR": 0.0032842534, "MEAN_MOTION_DOT": 7.345e-05, "MEAN_MOTION_DDOT": 0}, "tle": {"line1": "1 30454U 99025AFR 25345.47929995  .00007345  00000+0  32843-2 0  9994", "line2": "2 30454  98.1349 315.8261 0171227 198.8835 292.6930 14.15371002959424"}}, "geometry": {"type": "Point", "coordinates": [-10.805574182503891, -75.29238951894999]}}, {"type": "Feature", "properties": {"norad_id": 30462, "name": "FENGYUN 1C DEB", "group": "fengyun-1c-debris", "lat": 49.494245496854234, "lon": -36.33904361754241, "alt_km": 960.5371465022736, "timestamp": "2025-12-11T20:41:15.357418+00:00", "meta": {"OBJECT_NAME": "FENGYUN 1C DEB", "OBJECT_ID": "1999-025AFZ", "EPOCH": "2025-12-11T12:29:27.732768", "MEAN_MOTION": 14.06263029, "ECCENTRICITY": 0.01388053, "INCLINATION": 98.8165, "RA_OF_ASC_NODE": 333.7959, "ARG_OF_PERICENTER": 253.6675, "MEAN_ANOMALY": 228.0748, "EPHEMERIS_TYPE": 0, "CLASSIFICATION_TYPE": "U", "NORAD_CAT_ID": 30462, "ELEMENT_SET_NO": 999, "REV_AT_EPOCH": 96776, "BSTAR": 0.00028317462, "MEAN_MOTION_DOT": 4.65e-06, "MEAN_MOTION_DDOT": 0}, "tle": {"line1": "1 30462U 99025AFZ 25345.52045987  .00000465  00000+0  28317-3 0  9997", "line2": "2 30462  98.8165 333.7959 0138805 253.6675 228.0748 14.06263029967761"}}, "geometry": {"type": "Point", "coordinates": [-36.33904361754241, 49.494245496854234]}}, {"type": "Feature", "properties": {"norad_id": 30464, "name": "FENGYUN 1C DEB", "group": "fengyun-1c-debris", "lat": 81.10355167616237, "lon": -47.484726145940584, "alt_km": 928.6759654304306, "timestamp": "2025-12-11T20:41:15.357428+00:00", "meta": {"OBJECT_NAME": "FENGYUN 1C DEB", "OBJECT_ID": "1999-025AGB", "EPOCH": "2025-12-11T14:12:44.144640", "MEAN_MOTION": 14.10245046, "ECCENTRICITY": 0.01082802, "INCLINATION": 98.8375, "RA_OF_ASC_NODE": 35.9155, "ARG_OF_PERICENTER": 261.8345, "MEAN_ANOMALY": 258.3528, "EPHEMERIS_TYPE": 0, "CLASSIFICATION_TYPE": "U", "NORAD_CAT_ID": 30464, "ELEMENT_SET_NO": 999, "REV_AT_EPOCH": 97047, "BSTAR": 0.00015179446, "MEAN_MOTION_DOT": 2.39e-06, "MEAN_MOTION_DDOT": 0}, "tle": {"line1": "1 30464U 99025AGB 25345.59217760  .00000239  00000+0  15179-3 0  9997", "line2": "2 30464  98.8375  35.9155 0108280 261.8345 258.3528 14.10245046970472"}}, "geometry": {"type": "Point", "coordinates": [-47.484726145940584, 81.10355167616237]}}, {"type": "Feature", "properties": {"norad_id": 30465, "name": "FENGYUN 1C DEB", "group": "fengyun-1c-debris", "lat": -39.875613813784796, "lon": -113.4027864213787, "alt_km": 797.3377095571923, "timestamp": "2025-12-11T20:41:15.357438+00:00", "meta": {"OBJECT_NAME": "FENGYUN 1C DEB", "OBJECT_ID": "1999-025AGC", "EPOCH": "2025-12-10T05:23:47.973984", "MEAN_MOTION": 14.33836633, "ECCENTRICITY": 0.001687, "INCLINATION": 98.8292, "RA_OF_ASC_NODE": 72.3877, "ARG_OF_PERICENTER": 39.7971, "MEAN_ANOMALY": 14.791, "EPHEMERIS_TYPE": 0, "CLASSIFICATION_TYPE": "U", "NORAD_CAT_ID": 30465, "ELEMENT_SET_NO": 999, "REV_AT_EPOCH": 97322, "BSTAR": 0.0027899, "MEAN_MOTION_DOT": 7.738e-05, "MEAN_MOTION_DDOT": 0}, "tle": {"line1": "1 30465U 99025AGC 25344.22486081  .00007738  00000+0  27899-2 0  9993", "line2": "2 30465  98.8292  72.3877 0016870  39.7971  14.7910 14.33836633973225"}}, "geometry": {"type": "Point", "coordinates": [-113.4027864213787, -39.875613813784796]}}, {"type": "Feature", "properties": {"norad_id": 30466, "name": "FENGYUN 1C DEB", "group": "fengyun-1c-debris", "lat": -18.015199517382875, "lon": -156.93706806433397, "alt_km": 904.6785671428761, "timestamp": "2025-12-11T20:41:15.357448+00:00", "meta": {"OBJECT_NAME": "FENGYUN 1C DEB", "OBJECT_ID": "1999-025AGD", "EPOCH": "2025-12-11T09:42:26.905248", "MEAN_MOTION": 14.22520716, "ECCENTRICITY": 0.01166147, "INCLINATION": 98.6555, "RA_OF_ASC_NODE": 25.453, "ARG_OF_PERICENTER": 28.2214, "MEAN_ANOMALY": 348.0921, "EPHEMERIS_TYPE": 0, "CLASSIFICATION_TYPE": "U", "NORAD_CAT_ID": 30466, "ELEMENT_SET_NO": 999, "REV_AT_EPOCH": 97332, "BSTAR": 0.0020060673, "MEAN_MOTION_DOT": 4.759e-05, "MEAN_MOTION_DDOT": 0}, "tle": {"line1": "1 30466U 99025AGD 25345.40447807  .00004759  00000+0  20061-2 0  9992", "line2": "2 30466  98.6555  25.4530 0116614  28.2214 348.0921 14.22520716973327"}}, "geometry": {"type": "Point", "coordinates": [-156.93706806433397, -18.015199517382875]}}]}